NORAD_CAT_ID,OBJECT_NAME,OBJECT_TYPE,EPOCH,MEAN_MOTION,ECCENTRICITY,INCLINATION,RA_OF_ASC_NODE,ARG_OF_PERICENTER,MEAN_ANOMALY,BSTAR,MEAN_MOTION_DOT,MEAN_MOTION_DDOT,TLE_LINE0,TLE_LINE1,TLE_LINE2,SEMIMAJOR_AXIS,PERIOD,APOGEE,PERIGEE,DECAYED
49446.0,STARLINK-3099,PAYLOAD,2021-12-23 06:00:00,15.73188352,0.0002542,53.2177,296.4572,26.384,352.0187,0.00036951,0.00051535,0.0,0 STARLINK-3099,1 49446U 21104AQ  21357.25001157  .00051535  00000-0  36951-3 0  9990,2 49446  53.2177 296.4572 0002542  26.3840 352.0187 15.73188352  7528,6727.928000000001,91.534,351.504,348.083,0.0
49446.0,STARLINK-3099,PAYLOAD,2021-12-23 14:00:01,15.73190173,0.0002274,53.2176,294.806,22.651,84.6934,7.8552e-05,0.00010413,0.0,0 STARLINK-3099,1 49446U 21104AQ  21357.58334491  .00010413  00000-0  78552-4 0  9990,2 49446  53.2176 294.8060 0002274  22.6510  84.6934 15.73190173  7573,6727.9230000000025,91.534,351.3180000000001,348.2580000000001,0.0
49446.0,STARLINK-3099,PAYLOAD,2021-12-23 22:00:00,15.7323245,0.0002223,53.2175,293.1568,24.553,171.6927,-0.00016744,-0.00024089,0.0,0 STARLINK-3099,1 49446U 21104AQ  21357.91667824 -.00024089  00000-0 -16744-3 0  9996,2 49446  53.2175 293.1568 0002223  24.5530 171.6927 15.73232450  3697,6727.803000000001,91.531,351.163,348.172,0.0
49446.0,STARLINK-3099,PAYLOAD,2021-12-24 14:00:01,15.72973727,0.0002267,53.2173,289.8517,25.2653,348.832,0.0017354,0.0024785,0.0,0 STARLINK-3099,1 49446U 21104AQ  21358.58334491  .00247850  00000-0  17354-2 0  9999,2 49446  53.2173 289.8517 0002267  25.2653 348.8320 15.72973727  7735,6728.54,91.546,351.931,348.88,0.0
49446.0,STARLINK-3099,PAYLOAD,2021-12-24 22:00:00,15.73170092,0.0002301,53.2168,288.2088,30.5742,72.3288,0.00013727,0.00018663,0.0,0 STARLINK-3099,1 49446U 21104AQ  21358.91667824  .00018663  00000-0  13727-3 0  9994,2 49446  53.2168 288.2088 0002301  30.5742  72.3288 15.73170092  3667,6727.98,91.535,351.394,348.297,0.0
49446.0,STARLINK-3099,PAYLOAD,2021-12-25 06:00:00,15.73157904,0.0002511,53.2168,286.5611,27.2942,164.5141,0.00069789,0.00098307,0.0,0 STARLINK-3099,1 49446U 21104AQ  21359.25001157  .00098307  00000-0  69789-3 0  9995,2 49446  53.2168 286.5611 0002511  27.2942 164.5141 15.73157904  7841,6728.015,91.536,351.57,348.191,0.0
49446.0,STARLINK-3099,PAYLOAD,2021-12-25 14:00:01,15.73210419,0.0002333,53.2168,284.9097,30.7096,250.0277,0.00045372,0.00063572,0.0,0 STARLINK-3099,1 49446U 21104AQ  21359.58334491  .00063572  00000-0  45372-3 0  9999,2 49446  53.2168 284.9097 0002333  30.7096 250.0277 15.73210419  3682,6727.865,91.533,351.3,348.161,0.0
49446.0,STARLINK-3099,PAYLOAD,2021-12-25 22:00:00,15.73283288,0.000234,53.2165,283.2605,30.7744,338.9124,-0.00015919,-0.00022985,0.0,0 STARLINK-3099,1 49446U 21104AQ  21359.91667824 -.00022985  00000-0 -15919-3 0  9994,2 49446  53.2165 283.2605 0002340  30.7744 338.9124 15.73283288  7948,6727.658,91.528,351.097,347.9480000000001,0.0
49446.0,STARLINK-3099,PAYLOAD,2021-12-26 14:00:01,15.7317649,0.0002055,53.2159,279.9606,22.2017,165.507,0.00043561,0.000609,0.0,0 STARLINK-3099,1 49446U 21104AQ  21360.58334491  .00060900  00000-0  43561-3 0  9991,2 49446  53.2159 279.9606 0002055  22.2017 165.5070 15.73176490  8059,6727.962,91.535,351.21,348.445,0.0
49446.0,STARLINK-3099,PAYLOAD,2021-12-26 22:00:00,15.73267034,0.0002035,53.2161,278.3118,22.41800000000001,254.2057,-0.00059754,-0.00083898,0.0,0 STARLINK-3099,1 49446U 21104AQ  21360.91667824 -.00083898  00000-0 -59754-3 0  9991,2 49446  53.2161 278.3118 0002035  22.4180 254.2057 15.73267034  3695,6727.704000000002,91.529,350.93800000000016,348.2,0.0
49446.0,STARLINK-3099,PAYLOAD,2021-12-27 06:00:00,15.73187819,0.0002272,53.2161,276.6636,19.6909,345.9172,-0.00013227,-0.00019135,0.0,0 STARLINK-3099,1 49446U 21104AQ  21361.25001157 -.00019135  00000-0 -13227-3 0  9998,2 49446  53.2161 276.6636 0002272  19.6909 345.9172 15.73187819  8155,6727.93,91.534,351.3230000000001,348.266,0.0
49446.0,STARLINK-3099,PAYLOAD,2021-12-27 14:00:01,15.73137923,0.0002076,53.2163,275.012,24.8014,69.7091,0.00055038,0.00077131,0.0,0 STARLINK-3099,1 49446U 21104AQ  21361.58334491  .00077131  00000-0  55038-3 0  9998,2 49446  53.2163 275.0120 0002076  24.8014  69.7091 15.73137923  3691,6728.071999999999,91.537,351.334,348.54,0.0
49446.0,STARLINK-3099,PAYLOAD,2021-12-27 22:00:00,15.73200364,0.0002191,53.2163,273.3633,26.8812,156.5046,7.7583e-05,0.00010281,0.0,0 STARLINK-3099,1 49446U 21104AQ  21361.91667824  .00010281  00000-0  77583-4 0  9997,2 49446  53.2163 273.3633 0002191  26.8812 156.5046 15.73200364  3681,6727.894,91.533,351.233,348.285,0.0
49446.0,STARLINK-3099,PAYLOAD,2021-12-28 06:00:00,15.73230833,0.0002275,53.2157,271.7149,22.1271,250.2036,-0.00015278,-0.00022038,0.0,0 STARLINK-3099,1 49446U 21104AQ  21362.25001157 -.00022038  00000-0 -15278-3 0  9993,2 49446  53.2157 271.7149 0002275  22.1271 250.2036 15.73230833  8319,6727.807,91.531,351.20300000000015,348.142,0.0
49446.0,STARLINK-3099,PAYLOAD,2021-12-28 14:00:01,15.73162223,0.0001951,53.2157,270.0632,22.6138,338.6722,0.00058158,0.00081668,0.0,0 STARLINK-3099,1 49446U 21104AQ  21362.58334491  .00081668  00000-0  58158-3 0  9995,2 49446  53.2157 270.0632 0001951  22.6138 338.6722 15.73162223  3714,6728.003000000002,91.535,351.181,348.555,0.0
49446.0,STARLINK-3099,PAYLOAD,2021-12-28 22:00:00,15.73205695,0.00024,53.2173,268.4046,27.3847,62.6694,-1.6771e-05,-2.976e-05,0.0,0 STARLINK-3099,1 49446U 21104AQ  21362.91667824 -.00002976  00000-0 -16771-4 0  9994,2 49446  53.2173 268.4046 0002400  27.3847  62.6694 15.73205695  8416,6727.879,91.533,351.3590000000001,348.129,0.0
49446.0,STARLINK-3099,PAYLOAD,2021-12-29 06:00:02,15.73194282,0.0002121,53.216,266.766,16.265,163.0107,0.0004407,0.00061672,0.0,0 STARLINK-3099,1 49446U 21104AQ  21363.25002315  .00061672  00000-0  44070-3 0  9998,2 49446  53.2160 266.7660 0002121  16.2650 163.0107 15.73194282  8474,6727.911,91.534,351.20300000000015,348.349,0.0
49446.0,STARLINK-3099,PAYLOAD,2021-12-29 14:00:01,15.73198415,0.000198,53.2164,265.1144,22.0349,246.1915,2.1241e-05,2.361e-05,0.0,0 STARLINK-3099,1 49446U 21104AQ  21363.58335648  .00002361  00000-0  21241-4 0  9998,2 49446  53.2164 265.1144 0001980  22.0349 246.1915 15.73198415  8528,6727.9,91.533,351.097,348.43300000000005,0.0
49446.0,STARLINK-3099,PAYLOAD,2021-12-29 22:00:47,15.73220247,0.0001892,53.2163,263.4604,24.8623,335.2488,4.114100000000001e-05,5.162e-05,0.0,0 STARLINK-3099,1 49446U 21104AQ  21363.91721187  .00005162  00000-0  41141-4 0  9995,2 49446  53.2163 263.4604 0001892  24.8623 335.2488 15.73220247  7507,6727.837,91.532,350.975,348.43,0.0
49446.0,STARLINK-3099,PAYLOAD,2021-12-30 04:00:00,15.73128633,0.0002211,53.2161,262.2302,19.5585,314.2263,0.00063218,0.00088777,0.0,0 STARLINK-3099,1 49446U 21104AQ  21364.16667824  .00088777  00000-0  63218-3 0  9991,2 49446  53.2161 262.2302 0002211  19.5585 314.2263 15.73128633  8618,6728.099,91.537,351.451,348.476,0.0
49446.0,STARLINK-3099,PAYLOAD,2021-12-30 14:00:01,15.73151324,0.0001886,53.2157,260.1661,21.8924,152.9883,0.00056073,0.00078652,0.0,0 STARLINK-3099,1 49446U 21104AQ  21364.58334491  .00078652  00000-0  56073-3 0  9990,2 49446  53.2157 260.1661 0001886  21.8924 152.9883 15.73151324  3688,6728.034000000002,91.536,351.168,348.63,0.0
49446.0,STARLINK-3099,PAYLOAD,2021-12-30 22:00:01,15.73232189,0.0002044,53.216,258.5181,24.0763,239.7778,-0.00021449,-0.00030658,0.0,0 STARLINK-3099,1 49446U 21104AQ  21364.91668981 -.00030658  00000-0 -21449-3 0  9996,2 49446  53.2160 258.5181 0002044  24.0763 239.7778 15.73232189  8730,6727.803000000001,91.531,351.0440000000001,348.293,0.0
49446.0,STARLINK-3099,PAYLOAD,2021-12-30 22:24:29,15.73194583,0.0002028,53.2167,258.4344,27.8371,332.2757,5.5104e-06,1.52e-06,0.0,0 STARLINK-3099,1 49446U 21104AQ  21364.93367320  .00000152  00000-0  55104-5 0  9992,2 49446  53.2167 258.4344 0002028  27.8371 332.2757 15.73194583  7667,6727.911,91.533,351.14,348.411,0.0
49446.0,STARLINK-3099,PAYLOAD,2021-12-31 14:00:01,15.73168309,0.0002058,53.2163,255.2178,30.5577,51.1109,0.00056296,0.0007903,0.0,0 STARLINK-3099,1 49446U 21104AQ  21365.58334491  .00079030  00000-0  56296-3 0  9999,2 49446  53.2163 255.2178 0002058  30.5577  51.1109 15.73168309  3699,6727.986,91.535,351.235,348.466,0.0
49446.0,STARLINK-3099,PAYLOAD,2021-12-31 21:16:41,15.73202462,0.0001441999999999,53.2166,253.7169,85.7463,274.3721,-2.4011e-05,-3.989e-05,0.0,0 STARLINK-3099,1 49446U 21104AQ  21365.88659243 -.00003989  00000-0 -24011-4 0  9990,2 49446  53.2166 253.7169 0001442  85.7463 274.3721 15.73202462  7813,6727.888000000001,91.533,350.723,348.783,0.0
49446.0,STARLINK-3099,PAYLOAD,2021-12-31 22:00:00,15.73240641,0.0002224,53.216,253.57,28.5509,142.024,-0.00072361,-0.00101152,0.0,0 STARLINK-3099,1 49446U 21104AQ  21365.91667824 -.00101152  00000-0 -72361-3 0  9999,2 49446  53.2160 253.5700 0002224  28.5509 142.0240 15.73240641  8898,6727.779,91.531,351.141,348.148,0.0
49446.0,STARLINK-3099,PAYLOAD,2022-01-01 06:00:00,15.73175391,0.0002206,53.2154,251.9208,23.9782,235.5392,0.00012178,0.00016487,0.0,0 STARLINK-3099,1 49446U 21104AQ  22001.25001157  .00016487  00000-0  12178-3 0  9999,2 49446  53.2154 251.9208 0002206  23.9782 235.5392 15.73175391  8949,6727.965,91.535,351.315,348.346,0.0
49446.0,STARLINK-3099,PAYLOAD,2022-01-01 14:00:01,15.73164432,0.0001943,53.2155,250.2684,28.374,320.123,0.00055021,0.00077195,0.0,0 STARLINK-3099,1 49446U 21104AQ  22001.58335648  .00077195  00000-0  55021-3 0  9997,2 49446  53.2155 250.2684 0001943  28.3740 320.1230 15.73164432  3671,6727.996999999999,91.535,351.1690000000001,348.55400000000014,0.0
49446.0,STARLINK-3099,PAYLOAD,2022-01-01 22:00:00,15.73211871,0.0002137,53.2155,248.622,27.5821,49.7493,-4.882e-05,-7.471e-05,0.0,0 STARLINK-3099,1 49446U 21104AQ  22001.91667824 -.00007471  00000-0 -48820-4 0  9990,2 49446  53.2155 248.6220 0002137  27.5821  49.7493 15.73211871  3681,6727.861,91.532,351.164,348.289,0.0
